*******************************************************************************
Ephemeris / PORT_LOGIN Sun Nov 27 10:14:08 2011 Pasadena, USA    / Horizons    
*******************************************************************************
Target body name: Iapetus (608)                   {source: SAT317}
Center body name: Solar System Barycenter (0)     {source: DE405}
Center-site name: BODY CENTER
*******************************************************************************
Start time      : A.D. 2001-Jan-01 10:00:00.0000 CT 
Stop  time      : A.D. 2001-Jan-02 00:00:00.0000 CT 
Step-size       : 60 minutes
*******************************************************************************
Center geodetic : 0.00000000,0.00000000,0.0000000 {E-lon(deg),Lat(deg),Alt(km)}
Center cylindric: 0.00000000,0.00000000,0.0000000 {E-lon(deg),Dxy(km),Dz(km)}
Center radii    : (undefined)                                                  
Output units    : AU-D                                                         
Output format   : 03
Reference frame : ICRF/J2000.0                                                 
Output type     : GEOMETRIC cartesian states
Coordinate systm: Earth Mean Equator and Equinox of Reference Epoch            
*******************************************************************************
JDCT 
   X     Y     Z
   VX    VY    VZ
   LT    RG    RR
*******************************************************************************
$$SOE
2451910.916666667 = A.D. 2001-Jan-01 10:00:00.0000 (CT)
   4.682125372109645E+00  7.313270646807664E+00  2.813219123675893E+00
  -6.921977584497848E-03  2.797896968193022E-03  1.685148057506054E-03
   5.271894505361464E-02  9.128002376830716E+00 -7.895592117685717E-04
2451910.958333333 = A.D. 2001-Jan-01 11:00:00.0000 (CT)
   4.681836937463204E+00  7.313387093842539E+00  2.813289317460720E+00
  -6.922881958918739E-03  2.791560547437314E-03  1.684152893464498E-03
   5.271875437696361E-02  9.127969362192012E+00 -7.951420472075412E-04
2451911.000000000 = A.D. 2001-Jan-01 12:00:00.0000 (CT)
   4.681548465570200E+00  7.313503276840586E+00  2.813359469690380E+00
  -6.923765419834824E-03  2.785223212395240E-03  1.683153411696954E-03
   5.271856235783445E-02  9.127936115110426E+00 -8.007164604025020E-04
2451911.041666667 = A.D. 2001-Jan-01 13:00:00.0000 (CT)
   4.681259957301991E+00  7.313619195765209E+00  2.813429580185244E+00
  -6.924627969028378E-03  2.778885035171719E-03  1.682149625464386E-03
   5.271836899826096E-02  9.127902635938099E+00 -8.062823929578421E-04
2451911.083333333 = A.D. 2001-Jan-01 14:00:00.0000 (CT)
   4.680971413529860E+00  7.313734850582820E+00  2.813499648766236E+00
  -6.925469608549025E-03  2.772546087800602E-03  1.681141548063142E-03
   5.271817430029103E-02  9.127868925029608E+00 -8.118397866528833E-04
2451911.125000000 = A.D. 2001-Jan-01 15:00:00.0000 (CT)
   4.680682835124992E+00  7.313850241262830E+00  2.813569675254834E+00
  -6.926290340712974E-03  2.766206442244196E-03  1.680129192824895E-03
   5.271797826598643E-02  9.127834982741946E+00 -8.173885834418320E-04
2451911.166666667 = A.D. 2001-Jan-01 16:00:00.0000 (CT)
   4.680394222958478E+00  7.313965367777641E+00  2.813639659473075E+00
  -6.927090168102237E-03  2.759866170392789E-03  1.679112573116601E-03
   5.271778089742300E-02  9.127800809434525E+00 -8.229287254537285E-04
2451911.208333333 = A.D. 2001-Jan-01 17:00:00.0000 (CT)
   4.680105577901289E+00  7.314080230102660E+00  2.813709601243552E+00
  -6.927869093563848E-03  2.753525344064161E-03  1.678091702340438E-03
   5.271758219669039E-02  9.127766405469165E+00 -8.284601549923966E-04
2451911.250000000 = A.D. 2001-Jan-01 18:00:00.0000 (CT)
   4.679816900824275E+00  7.314194828216277E+00  2.813779500389415E+00
  -6.928627120209058E-03  2.747184035003087E-03  1.677066593933755E-03
   5.271738216589217E-02  9.127731771210083E+00 -8.339828145364074E-04
2451911.291666667 = A.D. 2001-Jan-01 19:00:00.0000 (CT)
   4.679528192598152E+00  7.314309162099867E+00  2.813849356734377E+00
  -6.929364251412517E-03  2.740842314880832E-03  1.676037261369005E-03
   5.271718080714571E-02  9.127696907023889E+00 -8.394966467390289E-04
2451911.333333333 = A.D. 2001-Jan-01 20:00:00.0000 (CT)
   4.679239454093488E+00  7.314423231737802E+00  2.813919170102714E+00
  -6.930080490811471E-03  2.734500255294638E-03  1.675003718153683E-03
   5.271697812258217E-02  9.127661813279584E+00 -8.450015944281928E-04
2451911.375000000 = A.D. 2001-Jan-01 21:00:00.0000 (CT)
   4.678950686180695E+00  7.314537037117422E+00  2.813988940319263E+00
  -6.930775842304929E-03  2.728157927767203E-03  1.673965977830255E-03
   5.271677411434643E-02  9.127626490348542E+00 -8.504976006064656E-04
2451911.416666667 = A.D. 2001-Jan-01 22:00:00.0000 (CT)
   4.678661889730014E+00  7.314650578229053E+00  2.814058667209429E+00
  -6.931450310052830E-03  2.721815403746147E-03  1.672924053976091E-03
   5.271656878459707E-02  9.127590938604509E+00 -8.559846084510149E-04
2451911.458333333 = A.D. 2001-Jan-01 23:00:00.0000 (CT)
   4.678373065611514E+00  7.314763855065996E+00  2.814128350599180E+00
  -6.932103898475203E-03  2.715472754603476E-03  1.671877960203376E-03
   5.271636213550634E-02  9.127555158423601E+00 -8.614625613135956E-04
2451911.500000000 = A.D. 2001-Jan-02 00:00:00.0000 (CT)
   4.678084214695068E+00  7.314876867624521E+00  2.814197990315053E+00
  -6.932736612251330E-03  2.709130051635032E-03  1.670827710159038E-03
   5.271615416926009E-02  9.127519150184282E+00 -8.669314027205261E-04
$$EOE
*******************************************************************************
Coordinate system description:

  Earth Mean Equator and Equinox of Reference Epoch

    Reference epoch: J2000.0
    xy-plane: plane of the Earth's mean equator at the reference epoch
    x-axis  : out along ascending node of instantaneous plane of the Earth's
              orbit and the Earth's mean equator at the reference epoch
    z-axis  : along the Earth mean north pole at the reference epoch

Symbol meaning [1 AU=149597870.691 km, 1 day=86400.0 s]:

    JDCT     Epoch Julian Date, Coordinate Time
      X      x-component of position vector (AU)                               
      Y      y-component of position vector (AU)                               
      Z      z-component of position vector (AU)                               
      VX     x-component of velocity vector (AU/day)                           
      VY     y-component of velocity vector (AU/day)                           
      VZ     z-component of velocity vector (AU/day)                           
      LT     One-way down-leg Newtonian light-time (day)                       
      RG     Range; distance from coordinate center (AU)                       
      RR     Range-rate; radial velocity wrt coord. center (AU/day)            

Geometric states/elements have no aberration corrections applied.

 Computations by ...
     Solar System Dynamics Group, Horizons On-Line Ephemeris System
     4800 Oak Grove Drive, Jet Propulsion Laboratory
     Pasadena, CA  91109   USA
     Information: http://ssd.jpl.nasa.gov/
     Connect    : telnet://ssd.jpl.nasa.gov:6775  (via browser)
                  telnet ssd.jpl.nasa.gov 6775    (via command-line)
     Author     : Jon.Giorgini@jpl.nasa.gov
*******************************************************************************
